ONEWEB-0514             
1 54132U 22138V   26021.39117772  .00000068  00000+0  13782-3 0  9996
2 54132  87.9244 334.1766 0001878  82.1480 277.9866 13.19727201157469
ONEWEB-0515             
1 54133U 22138W   26021.30219736  .00000158  00000+0  35620-3 0  9996
2 54133  87.9232 303.7293 0001770 105.9452 254.1877 13.20773726159914
ONEWEB-0516             
1 54134U 22138X   26021.36591148  .00000166  00000+0  38292-3 0  9990
2 54134  87.9230 334.1966 0001643  79.9618 280.1700 13.19726159157469
ONEWEB-0517             
1 54135U 22138Y   26021.42118757  .00000172  00000+0  39715-3 0  9997
2 54135  87.9242 334.1707 0002047  74.9229 285.2130 13.19727380157479
ONEWEB-0518             
1 54136U 22138Z   26021.36431925  .00000115  00000+0  25394-3 0  9991
2 54136  87.9233 334.1984 0001665  75.4882 284.6435 13.19727448157468
ONEWEB-0519             
1 54137U 22138AA  26021.31378894  .00000144  00000+0  32707-3 0  9990
2 54137  87.9240 334.1829 0001956  75.3991 284.7359 13.19725181157466
ONEWEB-0520             
1 54138U 22138AB  26021.42435585  .00000132  00000+0  29632-3 0  9994
2 54138  87.9250 334.1666 0001574  73.0683 287.0623 13.19726012157460
ONEWEB-0521             
1 54139U 22138AC  26021.38170912  .00000113  00000+0  24927-3 0  9991
2 54139  87.9248 334.1592 0002003  78.0568 282.0789 13.19726056157401
ONEWEB-0522             
1 54140U 22138AD  26021.36116756  .00000151  00000+0  34466-3 0  9998
2 54140  87.9246 334.1643 0001684  74.5853 285.5466 13.19727504157443
ONEWEB-0523             
1 54141U 22138AE  26021.28958700  .00000151  00000+0  33986-3 0  9999
2 54141  87.9228 303.7472 0002293  92.9349 267.2047 13.20769816159917
ONEWEB-0524             
1 54142U 22138AF  26021.50580245  .00000129  00000+0  28555-3 0  9991
2 54142  87.9230 303.7058 0001522 110.3472 249.7825 13.20771549159945
ONEWEB-0525             
1 54143U 22138AG  26021.30431195  .00000042  00000+0  72827-4 0  9995
2 54143  87.9238 334.1933 0001570  73.0400 287.0904 13.19725750157451
ONEWEB-0526             
1 54144U 22138AH  26021.41329873  .00000161  00000+0  37028-3 0  9992
2 54144  87.9247 334.1628 0001691  78.2505 281.8817 13.19726189157441
ONEWEB-0529             
1 54145U 22138AJ  26021.41645745  .00000277  00000+0  65848-3 0  9991
2 54145  87.9236 334.1854 0001554  74.4038 285.7266 13.19726780157468
ONEWEB-0531             
1 54146U 22138AK  26021.49159493  .00000196  00000+0  45078-3 0  9993
2 54146  87.9235 303.7039 0002134 102.0409 258.0963 13.20773555159946
ONEWEB-0535             
1 54147U 22138AL  26021.29798823  .00000060  00000+0  11650-3 0  9997
2 54147  87.9247 334.1806 0002106  85.3972 274.7401 13.19727335157467
ONEWEB-0536             
1 54148U 22138AM  26021.47896023  .00000079  00000+0  16239-3 0  9997
2 54148  87.9218 303.7460 0002086 106.2433 253.8930 13.20774390159930
