[{"OBJECT_NAME":"ONEWEB-0514","OBJECT_ID":"2022-138V","EPOCH":"2026-01-21T09:23:17.755008","MEAN_MOTION":13.19727201,"ECCENTRICITY":0.0001878,"INCLINATION":87.9244,"RA_OF_ASC_NODE":334.1766,"ARG_OF_PERICENTER":82.148,"MEAN_ANOMALY":277.9866,"EPHEMERIS_TYPE":0,"CLASSIFICATION_TYPE":"U","NORAD_CAT_ID":54132,"ELEMENT_SET_NO":999,"REV_AT_EPOCH":15746,"BSTAR":0.00013782,"MEAN_MOTION_DOT":6.8e-7,"MEAN_MOTION_DDOT":0},{"OBJECT_NAME":"ONEWEB-0515","OBJECT_ID":"2022-138W","EPOCH":"2026-01-21T07:15:09.851904","MEAN_MOTION":13.20773726,"ECCENTRICITY":0.000177,"INCLINATION":87.9232,"RA_OF_ASC_NODE":303.7293,"ARG_OF_PERICENTER":105.9452,"MEAN_ANOMALY":254.1877,"EPHEMERIS_TYPE":0,"CLASSIFICATION_TYPE":"U","NORAD_CAT_ID":54133,"ELEMENT_SET_NO":999,"REV_AT_EPOCH":15991,"BSTAR":0.0003562,"MEAN_MOTION_DOT":1.58e-6,"MEAN_MOTION_DDOT":0},{"OBJECT_NAME":"ONEWEB-0516","OBJECT_ID":"2022-138X","EPOCH":"2026-01-21T08:46:54.751872","MEAN_MOTION":13.19726159,"ECCENTRICITY":0.0001643,"INCLINATION":87.923,"RA_OF_ASC_NODE":334.1966,"ARG_OF_PERICENTER":79.9618,"MEAN_ANOMALY":280.17,"EPHEMERIS_TYPE":0,"CLASSIFICATION_TYPE":"U","NORAD_CAT_ID":54134,"ELEMENT_SET_NO":999,"REV_AT_EPOCH":15746,"BSTAR":0.00038292,"MEAN_MOTION_DOT":1.66e-6,"MEAN_MOTION_DDOT":0},{"OBJECT_NAME":"ONEWEB-0517","OBJECT_ID":"2022-138Y","EPOCH":"2026-01-21T10:06:30.606048","MEAN_MOTION":13.1972738,"ECCENTRICITY":0.0002047,"INCLINATION":87.9242,"RA_OF_ASC_NODE":334.1707,"ARG_OF_PERICENTER":74.9229,"MEAN_ANOMALY":285.213,"EPHEMERIS_TYPE":0,"CLASSIFICATION_TYPE":"U","NORAD_CAT_ID":54135,"ELEMENT_SET_NO":999,"REV_AT_EPOCH":15747,"BSTAR":0.00039715,"MEAN_MOTION_DOT":1.72e-6,"MEAN_MOTION_DDOT":0},{"OBJECT_NAME":"ONEWEB-0518","OBJECT_ID":"2022-138Z","EPOCH":"2026-01-21T08:44:37.183200","MEAN_MOTION":13.19727448,"ECCENTRICITY":0.0001665,"INCLINATION":87.9233,"RA_OF_ASC_NODE":334.1984,"ARG_OF_PERICENTER":75.4882,"MEAN_ANOMALY":284.6435,"EPHEMERIS_TYPE":0,"CLASSIFICATION_TYPE":"U","NORAD_CAT_ID":54136,"ELEMENT_SET_NO":999,"REV_AT_EPOCH":15746,"BSTAR":0.00025394,"MEAN_MOTION_DOT":1.15e-6,"MEAN_MOTION_DDOT":0},{"OBJECT_NAME":"ONEWEB-0519","OBJECT_ID":"2022-138AA","EPOCH":"2026-01-21T07:31:51.364416","MEAN_MOTION":13.19725181,"ECCENTRICITY":0.0001956,"INCLINATION":87.924,"RA_OF_ASC_NODE":334.1829,"ARG_OF_PERICENTER":75.3991,"MEAN_ANOMALY":284.7359,"EPHEMERIS_TYPE":0,"CLASSIFICATION_TYPE":"U","NORAD_CAT_ID":54137,"ELEMENT_SET_NO":999,"REV_AT_EPOCH":15746,"BSTAR":0.00032707,"MEAN_MOTION_DOT":1.44e-6,"MEAN_MOTION_DDOT":0},{"OBJECT_NAME":"ONEWEB-0520","OBJECT_ID":"2022-138AB","EPOCH":"2026-01-21T10:11:04.345440","MEAN_MOTION":13.19726012,"ECCENTRICITY":0.0001574,"INCLINATION":87.925,"RA_OF_ASC_NODE":334.1666,"ARG_OF_PERICENTER":73.0683,"MEAN_ANOMALY":287.0623,"EPHEMERIS_TYPE":0,"CLASSIFICATION_TYPE":"U","NORAD_CAT_ID":54138,"ELEMENT_SET_NO":999,"REV_AT_EPOCH":15746,"BSTAR":0.00029632,"MEAN_MOTION_DOT":1.32e-6,"MEAN_MOTION_DDOT":0},{"OBJECT_NAME":"ONEWEB-0521","OBJECT_ID":"2022-138AC","EPOCH":"2026-01-21T09:09:39.667968","MEAN_MOTION":13.19726056,"ECCENTRICITY":0.0002003,"INCLINATION":87.9248,"RA_OF_ASC_NODE":334.1592,"ARG_OF_PERICENTER":78.0568,"MEAN_ANOMALY":282.0789,"EPHEMERIS_TYPE":0,"CLASSIFICATION_TYPE":"U","NORAD_CAT_ID":54139,"ELEMENT_SET_NO":999,"REV_AT_EPOCH":15740,"BSTAR":0.00024927,"MEAN_MOTION_DOT":1.13e-6,"MEAN_MOTION_DDOT":0},{"OBJECT_NAME":"ONEWEB-0522","OBJECT_ID":"2022-138AD","EPOCH":"2026-01-21T08:40:04.877184","MEAN_MOTION":13.19727504,"ECCENTRICITY":0.0001684,"INCLINATION":87.9246,"RA_OF_ASC_NODE":334.1643,"ARG_OF_PERICENTER":74.5853,"MEAN_ANOMALY":285.5466,"EPHEMERIS_TYPE":0,"CLASSIFICATION_TYPE":"U","NORAD_CAT_ID":54140,"ELEMENT_SET_NO":999,"REV_AT_EPOCH":15744,"BSTAR":0.00034466,"MEAN_MOTION_DOT":1.51e-6,"MEAN_MOTION_DDOT":0},{"OBJECT_NAME":"ONEWEB-0523","OBJECT_ID":"2022-138AE","EPOCH":"2026-01-21T06:57:00.316800","MEAN_MOTION":13.20769816,"ECCENTRICITY":0.0002293,"INCLINATION":87.9228,"RA_OF_ASC_NODE":303.7472,"ARG_OF_PERICENTER":92.9349,"MEAN_ANOMALY":267.2047,"EPHEMERIS_TYPE":0,"CLASSIFICATION_TYPE":"U","NORAD_CAT_ID":54141,"ELEMENT_SET_NO":999,"REV_AT_EPOCH":15991,"BSTAR":0.00033986,"MEAN_MOTION_DOT":1.51e-6,"MEAN_MOTION_DDOT":0},{"OBJECT_NAME":"ONEWEB-0524","OBJECT_ID":"2022-138AF","EPOCH":"2026-01-21T12:08:21.331680","MEAN_MOTION":13.20771549,"ECCENTRICITY":0.0001522,"INCLINATION":87.923,"RA_OF_ASC_NODE":303.7058,"ARG_OF_PERICENTER":110.3472,"MEAN_ANOMALY":249.7825,"EPHEMERIS_TYPE":0,"CLASSIFICATION_TYPE":"U","NORAD_CAT_ID":54142,"ELEMENT_SET_NO":999,"REV_AT_EPOCH":15994,"BSTAR":0.00028555,"MEAN_MOTION_DOT":1.29e-6,"MEAN_MOTION_DDOT":0},{"OBJECT_NAME":"ONEWEB-0525","OBJECT_ID":"2022-138AG","EPOCH":"2026-01-21T07:18:12.552480","MEAN_MOTION":13.1972575,"ECCENTRICITY":0.000157,"INCLINATION":87.9238,"RA_OF_ASC_NODE":334.1933,"ARG_OF_PERICENTER":73.04,"MEAN_ANOMALY":287.0904,"EPHEMERIS_TYPE":0,"CLASSIFICATION_TYPE":"U","NORAD_CAT_ID":54143,"ELEMENT_SET_NO":999,"REV_AT_EPOCH":15745,"BSTAR":7.2827e-5,"MEAN_MOTION_DOT":4.2e-7,"MEAN_MOTION_DDOT":0},{"OBJECT_NAME":"ONEWEB-0526","OBJECT_ID":"2022-138AH","EPOCH":"2026-01-21T09:55:09.010272","MEAN_MOTION":13.19726189,"ECCENTRICITY":0.0001691,"INCLINATION":87.9247,"RA_OF_ASC_NODE":334.1628,"ARG_OF_PERICENTER":78.2505,"MEAN_ANOMALY":281.8817,"EPHEMERIS_TYPE":0,"CLASSIFICATION_TYPE":"U","NORAD_CAT_ID":54144,"ELEMENT_SET_NO":999,"REV_AT_EPOCH":15744,"BSTAR":0.00037028,"MEAN_MOTION_DOT":1.61e-6,"MEAN_MOTION_DDOT":0},{"OBJECT_NAME":"ONEWEB-0529","OBJECT_ID":"2022-138AJ","EPOCH":"2026-01-21T09:59:41.923680","MEAN_MOTION":13.1972678,"ECCENTRICITY":0.0001554,"INCLINATION":87.9236,"RA_OF_ASC_NODE":334.1854,"ARG_OF_PERICENTER":74.4038,"MEAN_ANOMALY":285.7266,"EPHEMERIS_TYPE":0,"CLASSIFICATION_TYPE":"U","NORAD_CAT_ID":54145,"ELEMENT_SET_NO":999,"REV_AT_EPOCH":15746,"BSTAR":0.00065848,"MEAN_MOTION_DOT":2.77e-6,"MEAN_MOTION_DDOT":0},{"OBJECT_NAME":"ONEWEB-0531","OBJECT_ID":"2022-138AK","EPOCH":"2026-01-21T11:47:53.801952","MEAN_MOTION":13.20773555,"ECCENTRICITY":0.0002134,"INCLINATION":87.9235,"RA_OF_ASC_NODE":303.7039,"ARG_OF_PERICENTER":102.0409,"MEAN_ANOMALY":258.0963,"EPHEMERIS_TYPE":0,"CLASSIFICATION_TYPE":"U","NORAD_CAT_ID":54146,"ELEMENT_SET_NO":999,"REV_AT_EPOCH":15994,"BSTAR":0.00045078,"MEAN_MOTION_DOT":1.96e-6,"MEAN_MOTION_DDOT":0},{"OBJECT_NAME":"ONEWEB-0535","OBJECT_ID":"2022-138AL","EPOCH":"2026-01-21T07:09:06.183072","MEAN_MOTION":13.19727335,"ECCENTRICITY":0.0002106,"INCLINATION":87.9247,"RA_OF_ASC_NODE":334.1806,"ARG_OF_PERICENTER":85.3972,"MEAN_ANOMALY":274.7401,"EPHEMERIS_TYPE":0,"CLASSIFICATION_TYPE":"U","NORAD_CAT_ID":54147,"ELEMENT_SET_NO":999,"REV_AT_EPOCH":15746,"BSTAR":0.0001165,"MEAN_MOTION_DOT":6.0e-7,"MEAN_MOTION_DDOT":0},{"OBJECT_NAME":"ONEWEB-0536","OBJECT_ID":"2022-138AM","EPOCH":"2026-01-21T11:29:42.163872","MEAN_MOTION":13.2077439,"ECCENTRICITY":0.0002086,"INCLINATION":87.9218,"RA_OF_ASC_NODE":303.746,"ARG_OF_PERICENTER":106.2433,"MEAN_ANOMALY":253.893,"EPHEMERIS_TYPE":0,"CLASSIFICATION_TYPE":"U","NORAD_CAT_ID":54148,"ELEMENT_SET_NO":999,"REV_AT_EPOCH":15993,"BSTAR":0.00016239,"MEAN_MOTION_DOT":7.9e-7,"MEAN_MOTION_DDOT":0}]
